{"type": "FeatureCollection", "features": [ {"type": "Feature", "properties": {"norad_id": 58662, "name": "TIANMU-1 21", "group": "weather", "lat": -24.135185363141083, "lon": -85.55535262893437, "alt_km": 475.4205835566254, "timestamp": "2025-12-10T09:57:44.348339+00:00", "meta": {"OBJECT_NAME": "TIANMU-1 21", "OBJECT_ID": "2023-208C", "EPOCH": "2025-12-09T18:57:33.729408", "MEAN_MOTION": 15.31450051, "ECCENTRICITY": 0.0005885, "INCLINATION": 97.4375, "RA_OF_ASC_NODE": 97.1731, "ARG_OF_PERICENTER": 272.6141, "MEAN_ANOMALY": 87.4426, "EPHEMERIS_TYPE": 0, "CLASSIFICATION_TYPE": "U", "NORAD_CAT_ID": 58662, "ELEMENT_SET_NO": 999, "REV_AT_EPOCH": 10854, "BSTAR": 0.00052935, "MEAN_MOTION_DOT": 0.00016023, "MEAN_MOTION_DDOT": 0}, "tle": {"line1": "1 58662U 23208C   25343.78997372  .00016023  00000+0  52935-3 0  9999", "line2": "2 58662  97.4375  97.1731 0005885 272.6141  87.4426 15.31450051108545"}}, "geometry": {"type": "Point", "coordinates": [-85.55535262893437, -24.135185363141083]}}, {"type": "Feature", "properties": {"norad_id": 58663, "name": "TIANMU-1 22", "group": "weather", "lat": 20.260647249217765, "lon": -81.71883520793465, "alt_km": 484.7629954412678, "timestamp": "2025-12-10T09:57:44.348350+00:00", "meta": {"OBJECT_NAME": "TIANMU-1 22", "OBJECT_ID": "2023-208D", "EPOCH": "2025-12-09T17:32:40.532352", "MEAN_MOTION": 15.2752235, "ECCENTRICITY": 0.0002784, "INCLINATION": 97.4383, "RA_OF_ASC_NODE": 94.8347, "ARG_OF_PERICENTER": 302.1206, "MEAN_ANOMALY": 57.9763, "EPHEMERIS_TYPE": 0, "CLASSIFICATION_TYPE": "U", "NORAD_CAT_ID": 58663, "ELEMENT_SET_NO": 999, "REV_AT_EPOCH": 10837, "BSTAR": 0.00048664, "MEAN_MOTION_DOT": 0.00013038, "MEAN_MOTION_DDOT": 0}, "tle": {"line1": "1 58663U 23208D   25343.73102468  .00013038  00000+0  48664-3 0  9996", "line2": "2 58663  97.4383  94.8347 0002784 302.1206  57.9763 15.27522350108372"}}, "geometry": {"type": "Point", "coordinates": [-81.71883520793465, 20.260647249217765]}}, {"type": "Feature", "properties": {"norad_id": 58700, "name": "TIANMU-1 15", "group": "weather", "lat": -46.303618555295294, "lon": 173.7787454575911, "alt_km": 495.08239153089835, "timestamp": "2025-12-10T09:57:44.348360+00:00", "meta": {"OBJECT_NAME": "TIANMU-1 15", "OBJECT_ID": "2024-004A", "EPOCH": "2025-12-09T19:59:26.314944", "MEAN_MOTION": 15.24619618, "ECCENTRICITY": 0.0005313, "INCLINATION": 97.4631, "RA_OF_ASC_NODE": 165.3133, "ARG_OF_PERICENTER": 310.9146, "MEAN_ANOMALY": 49.1631, "EPHEMERIS_TYPE": 0, "CLASSIFICATION_TYPE": "U", "NORAD_CAT_ID": 58700, "ELEMENT_SET_NO": 999, "REV_AT_EPOCH": 10690, "BSTAR": 0.00043374, "MEAN_MOTION_DOT": 0.00010639, "MEAN_MOTION_DDOT": 0}, "tle": {"line1": "1 58700U 24004A   25343.83294346  .00010639  00000+0  43374-3 0  9998", "line2": "2 58700  97.4631 165.3133 0005313 310.9146  49.1631 15.24619618106903"}}, "geometry": {"type": "Point", "coordinates": [173.7787454575911, -46.303618555295294]}}, {"type": "Feature", "properties": {"norad_id": 58701, "name": "TIANMU-1 16", "group": "weather", "lat": 36.75023677957654, "lon": 159.671339937485, "alt_km": 490.11135965212634, "timestamp": "2025-12-10T09:57:44.348371+00:00", "meta": {"OBJECT_NAME": "TIANMU-1 16", "OBJECT_ID": "2024-004B", "EPOCH": "2025-12-09T19:37:16.591296", "MEAN_MOTION": 15.24370836, "ECCENTRICITY": 0.0004613, "INCLINATION": 97.457, "RA_OF_ASC_NODE": 164.6898, "ARG_OF_PERICENTER": 309.2998, "MEAN_ANOMALY": 50.783, "EPHEMERIS_TYPE": 0, "CLASSIFICATION_TYPE": "U", "NORAD_CAT_ID": 58701, "ELEMENT_SET_NO": 999, "REV_AT_EPOCH": 10690, "BSTAR": 0.00042548, "MEAN_MOTION_DOT": 0.00010356, "MEAN_MOTION_DDOT": 0}, "tle": {"line1": "1 58701U 24004B   25343.81755314  .00010356  00000+0  42548-3 0  9992", "line2": "2 58701  97.4570 164.6898 0004613 309.2998  50.7830 15.24370836106909"}}, "geometry": {"type": "Point", "coordinates": [159.671339937485, 36.75023677957654]}}, {"type": "Feature", "properties": {"norad_id": 58702, "name": "TIANMU-1 17", "group": "weather", "lat": 57.86772663817017, "lon": -2.2642917289219637, "alt_km": 489.5638276877362, "timestamp": "2025-12-10T09:57:44.348382+00:00", "meta": {"OBJECT_NAME": "TIANMU-1 17", "OBJECT_ID": "2024-004C", "EPOCH": "2025-12-09T20:49:44.393952", "MEAN_MOTION": 15.24416725, "ECCENTRICITY": 0.0003832, "INCLINATION": 97.4604, "RA_OF_ASC_NODE": 165.1485, "ARG_OF_PERICENTER": 312.8291, "MEAN_ANOMALY": 47.2624, "EPHEMERIS_TYPE": 0, "CLASSIFICATION_TYPE": "U", "NORAD_CAT_ID": 58702, "ELEMENT_SET_NO": 999, "REV_AT_EPOCH": 10690, "BSTAR": 0.00045271, "MEAN_MOTION_DOT": 0.00011039, "MEAN_MOTION_DDOT": 0}, "tle": {"line1": "1 58702U 24004C   25343.86787493  .00011039  00000+0  45271-3 0  9996", "line2": "2 58702  97.4604 165.1485 0003832 312.8291  47.2624 15.24416725106904"}}, "geometry": {"type": "Point", "coordinates": [-2.2642917289219637, 57.86772663817017]}}, {"type": "Feature", "properties": {"norad_id": 58703, "name": "TIANMU-1 18", "group": "weather", "lat": -32.655444220531464, "lon": -18.930552383226853, "alt_km": 499.0858505186343, "timestamp": "2025-12-10T09:57:44.348393+00:00", "meta": {"OBJECT_NAME": "TIANMU-1 18", "OBJECT_ID": "2024-004D", "EPOCH": "2025-12-09T20:25:40.790784", "MEAN_MOTION": 15.24405274, "ECCENTRICITY": 0.0003186, "INCLINATION": 97.4621, "RA_OF_ASC_NODE": 165.3266, "ARG_OF_PERICENTER": 314.0648, "MEAN_ANOMALY": 46.0327, "EPHEMERIS_TYPE": 0, "CLASSIFICATION_TYPE": "U", "NORAD_CAT_ID": 58703, "ELEMENT_SET_NO": 999, "REV_AT_EPOCH": 10690, "BSTAR": 0.00043977, "MEAN_MOTION_DOT": 0.00010716, "MEAN_MOTION_DDOT": 0}, "tle": {"line1": "1 58703U 24004D   25343.85116656  .00010716  00000+0  43977-3 0  9995", "line2": "2 58703  97.4621 165.3266 0003186 314.0648  46.0327 15.24405274106909"}}, "geometry": {"type": "Point", "coordinates": [-18.930552383226853, -32.655444220531464]}}, {"type": "Feature", "properties": {"norad_id": 58990, "name": "INSAT-3DS", "group": "weather", "lat": -0.017279717056934336, "lon": -49.09143878335056, "alt_km": 35781.89346624267, "timestamp": "2025-12-10T09:57:44.348414+00:00", "meta": {"OBJECT_NAME": "INSAT-3DS", "OBJECT_ID": "2024-033A", "EPOCH": "2025-12-10T00:35:38.775840", "MEAN_MOTION": 1.00269607, "ECCENTRICITY": 0.0001616, "INCLINATION": 0.0292, "RA_OF_ASC_NODE": 112.0604, "ARG_OF_PERICENTER": 153.6709, "MEAN_ANOMALY": 264.2623, "EPHEMERIS_TYPE": 0, "CLASSIFICATION_TYPE": "U", "NORAD_CAT_ID": 58990, "ELEMENT_SET_NO": 999, "REV_AT_EPOCH": 4517, "BSTAR": 0, "MEAN_MOTION_DOT": -1.52e-06, "MEAN_MOTION_DDOT": 0}, "tle": {"line1": "1 58990U 24033A   25344.02475435 -.00000152  00000+0  00000+0 0  9998", "line2": "2 58990   0.0292 112.0604 0001616 153.6709 264.2623  1.00269607 45178"}}, "geometry": {"type": "Point", "coordinates": [-49.09143878335056, -0.017279717056934336]}}, {"type": "Feature", "properties": {"norad_id": 59051, "name": "METEOR-M2 4", "group": "weather", "lat": 19.484014490846327, "lon": 124.4572970771661, "alt_km": 822.0117621410054, "timestamp": "2025-12-10T09:57:44.348429+00:00", "meta": {"OBJECT_NAME": "METEOR-M2 4", "OBJECT_ID": "2024-039A", "EPOCH": "2025-12-10T04:08:49.920864", "MEAN_MOTION": 14.22400601, "ECCENTRICITY": 0.0007181, "INCLINATION": 98.6762, "RA_OF_ASC_NODE": 301.122, "ARG_OF_PERICENTER": 5.887, "MEAN_ANOMALY": 354.2391, "EPHEMERIS_TYPE": 0, "CLASSIFICATION_TYPE": "U", "NORAD_CAT_ID": 59051, "ELEMENT_SET_NO": 999, "REV_AT_EPOCH": 9239, "BSTAR": 5.658e-05, "MEAN_MOTION_DOT": 8.2e-07, "MEAN_MOTION_DDOT": 0}, "tle": {"line1": "1 59051U 24039A   25344.17280001  .00000082  00000+0  56580-4 0  9992", "line2": "2 59051  98.6762 301.1220 0007181   5.8870 354.2391 14.22400601 92394"}}, "geometry": {"type": "Point", "coordinates": [124.4572970771661, 19.484014490846327]}}, {"type": "Feature", "properties": {"norad_id": 60133, "name": "GOES 19", "group": "weather", "lat": 4.689082013666381e-06, "lon": 153.63327811678766, "alt_km": 35791.26702648664, "timestamp": "2025-12-10T09:57:44.348444+00:00", "meta": {"OBJECT_NAME": "GOES 19", "OBJECT_ID": "2024-119A", "EPOCH": "2025-12-09T12:33:25.293024", "MEAN_MOTION": 1.00271399, "ECCENTRICITY": 0.0001348, "INCLINATION": 0.0188, "RA_OF_ASC_NODE": 159.4399, "ARG_OF_PERICENTER": 145.9183, "MEAN_ANOMALY": 246.3286, "EPHEMERIS_TYPE": 0, "CLASSIFICATION_TYPE": "U", "NORAD_CAT_ID": 60133, "ELEMENT_SET_NO": 999, "REV_AT_EPOCH": 506, "BSTAR": 0, "MEAN_MOTION_DOT": -2.46e-06, "MEAN_MOTION_DDOT": 0}, "tle": {"line1": "1 60133U 24119A   25343.52320941 -.00000246  00000+0  00000+0 0  9994", "line2": "2 60133   0.0188 159.4399 0001348 145.9183 246.3286  1.00271399  5063"}}, "geometry": {"type": "Point", "coordinates": [153.63327811678766, 4.689082013666381e-06]}}, {"type": "Feature", "properties": {"norad_id": 65815, "name": "FENGYUN 3H", "group": "weather", "lat": 58.74909078302207, "lon": -90.4860390355954, "alt_km": 819.5786235586038, "timestamp": "2025-12-10T09:57:44.348455+00:00", "meta": {"OBJECT_NAME": "FENGYUN 3H", "OBJECT_ID": "2025-219A", "EPOCH": "2025-12-10T02:54:59.770368", "MEAN_MOTION": 14.19903515, "ECCENTRICITY": 6.03e-05, "INCLINATION": 98.6581, "RA_OF_ASC_NODE": 283.7688, "ARG_OF_PERICENTER": 86.9514, "MEAN_ANOMALY": 273.1732, "EPHEMERIS_TYPE": 0, "CLASSIFICATION_TYPE": "U", "NORAD_CAT_ID": 65815, "ELEMENT_SET_NO": 999, "REV_AT_EPOCH": 1055, "BSTAR": 0.0001029, "MEAN_MOTION_DOT": 1.75e-06, "MEAN_MOTION_DDOT": 0}, "tle": {"line1": "1 65815U 25219A   25344.12152512  .00000175  00000+0  10290-3 0  9998", "line2": "2 65815  98.6581 283.7688 0000603  86.9514 273.1732 14.19903515 10552"}}, "geometry": {"type": "Point", "coordinates": [-90.4860390355954, 58.74909078302207]}}]}